start=new Date('2021-12-13T00:00:00.000Z').valueOf();
sats=[{"APOAPSIS":"548.877","OBJECT_ID":"2020-019BD","REF_FRAME":"TEME","EPOCH":"2021-12-12T22:32:45.788640","TIME_SYSTEM":"UTC","INCLINATION":"53.0539","EPHEMERIS_TYPE":"0","ARG_OF_PERICENTER":"64.8689","SITE":"AFETR","COUNTRY_CODE":"US","MEAN_MOTION_DOT":"0.00000798","PERIAPSIS":"545.545","LAUNCH_DATE":"2020-03-18","ECCENTRICITY":"0.00024060","OBJECT_NAME":"STARLINK-1293","MEAN_MOTION_DDOT":"0.0000000000000","OBJECT_TYPE":"PAYLOAD","GP_ID":"191584360","TLE_LINE1":"1 45411U 20019BD  21346.93941885  .00000798  00000-0  72481-4 0  9990","SEMIMAJOR_AXIS":"6925.346","ELEMENT_SET_NO":"999","CLASSIFICATION_TYPE":"U","TLE_LINE2":"2 45411  53.0539 244.7348 0002406  64.8689 295.2549 15.06400857 96600","RCS_SIZE":"LARGE","DECAY_DATE":null,"PERIOD":"95.592","MEAN_ELEMENT_THEORY":"SGP4","BSTAR":"0.00007248100000","CENTER_NAME":"EARTH","NORAD_CAT_ID":"45411","REV_AT_EPOCH":"9660","FILE":"3238376","RA_OF_ASC_NODE":"244.7348","MEAN_MOTION":"15.06400857","MEAN_ANOMALY":"295.2549"},{"ECCENTRICITY":"0.00023720","LAUNCH_DATE":"2020-03-18","MEAN_MOTION_DOT":"0.00001126","PERIAPSIS":"545.565","COUNTRY_CODE":"US","SITE":"AFETR","ARG_OF_PERICENTER":"65.0315","INCLINATION":"53.0552","EPHEMERIS_TYPE":"0","TIME_SYSTEM":"UTC","EPOCH":"2021-12-12T21:44:59.126496","OBJECT_ID":"2020-019BE","REF_FRAME":"TEME","APOAPSIS":"548.850","MEAN_ANOMALY":"295.0920","MEAN_MOTION":"15.06402075","FILE":"3238376","RA_OF_ASC_NODE":"244.8989","REV_AT_EPOCH":"9657","CENTER_NAME":"EARTH","NORAD_CAT_ID":"45412","PERIOD":"95.592","DECAY_DATE":null,"RCS_SIZE":"LARGE","MEAN_ELEMENT_THEORY":"SGP4","BSTAR":"0.00009450000000","TLE_LINE2":"2 45412  53.0552 244.8989 0002372  65.0315 295.0920 15.06402075 96570","CLASSIFICATION_TYPE":"U","GP_ID":"191585607","TLE_LINE1":"1 45412U 20019BE  21346.90623989  .00001126  00000-0  94500-4 0  9992","SEMIMAJOR_AXIS":"6925.342","ELEMENT_SET_NO":"999","OBJECT_TYPE":"PAYLOAD","OBJECT_NAME":"STARLINK-1296","MEAN_MOTION_DDOT":"0.0000000000000"},{"MEAN_MOTION_DDOT":"0.0000000000000","OBJECT_NAME":"STARLINK-1298","OBJECT_TYPE":"PAYLOAD","GP_ID":"191564292","TLE_LINE1":"1 45413U 20019BF  21346.93573166 -.00000513  00000-0 -15510-4 0  9992","SEMIMAJOR_AXIS":"6925.359","ELEMENT_SET_NO":"999","CLASSIFICATION_TYPE":"U","TLE_LINE2":"2 45413  53.0534 244.7653 0002458  65.5782 294.5463 15.06396440 96671","REV_AT_EPOCH":"9667","FILE":"3238337","RA_OF_ASC_NODE":"244.7653","PERIOD":"95.592","DECAY_DATE":null,"RCS_SIZE":"LARGE","MEAN_ELEMENT_THEORY":"SGP4","BSTAR":"-0.00001551000000","CENTER_NAME":"EARTH","NORAD_CAT_ID":"45413","MEAN_ANOMALY":"294.5463","MEAN_MOTION":"15.06396440","EPOCH":"2021-12-12T22:27:27.215424","TIME_SYSTEM":"UTC","APOAPSIS":"548.927","OBJECT_ID":"2020-019BF","REF_FRAME":"TEME","INCLINATION":"53.0534","EPHEMERIS_TYPE":"0","SITE":"AFETR","ARG_OF_PERICENTER":"65.5782","MEAN_MOTION_DOT":"-0.00000513","PERIAPSIS":"545.522","COUNTRY_CODE":"US","ECCENTRICITY":"0.00024580","LAUNCH_DATE":"2020-03-18"},{"TLE_LINE2":"2 45414  53.0531 244.8303 0002504  69.5175 290.6083 15.06391266 96568","CLASSIFICATION_TYPE":"U","GP_ID":"191584609","SEMIMAJOR_AXIS":"6925.375","TLE_LINE1":"1 45414U 20019BG  21346.92098772 -.00000990  00000-0 -47555-4 0  9990","ELEMENT_SET_NO":"999","OBJECT_TYPE":"PAYLOAD","MEAN_MOTION_DDOT":"0.0000000000000","OBJECT_NAME":"STARLINK-1309","MEAN_ANOMALY":"290.6083","MEAN_MOTION":"15.06391266","FILE":"3238376","RA_OF_ASC_NODE":"244.8303","REV_AT_EPOCH":"9656","CENTER_NAME":"EARTH","NORAD_CAT_ID":"45414","RCS_SIZE":"LARGE","DECAY_DATE":null,"PERIOD":"95.593","BSTAR":"-0.00004755500000","MEAN_ELEMENT_THEORY":"SGP4","SITE":"AFETR","ARG_OF_PERICENTER":"69.5175","INCLINATION":"53.0531","EPHEMERIS_TYPE":"0","TIME_SYSTEM":"UTC","EPOCH":"2021-12-12T22:06:13.339008","OBJECT_ID":"2020-019BG","REF_FRAME":"TEME","APOAPSIS":"548.974","ECCENTRICITY":"0.00025040","LAUNCH_DATE":"2020-03-18","MEAN_MOTION_DOT":"-0.00000990","PERIAPSIS":"545.506","COUNTRY_CODE":"US"},{"OBJECT_NAME":"STARLINK-1316","MEAN_MOTION_DDOT":"0.0000000000000","OBJECT_TYPE":"PAYLOAD","TLE_LINE1":"1 45415U 20019BH  21346.94679157 -.00000984  00000-0 -47149-4 0  9997","SEMIMAJOR_AXIS":"6925.365","ELEMENT_SET_NO":"999","GP_ID":"191584861","CLASSIFICATION_TYPE":"U","TLE_LINE2":"2 45415  53.0527 244.6981 0002545  70.5270 289.5993 15.06394692 96605","MEAN_ELEMENT_THEORY":"SGP4","BSTAR":"-0.00004714900000","DECAY_DATE":null,"PERIOD":"95.592","RCS_SIZE":"LARGE","NORAD_CAT_ID":"45415","CENTER_NAME":"EARTH","REV_AT_EPOCH":"9660","RA_OF_ASC_NODE":"244.6981","FILE":"3238376","MEAN_MOTION":"15.06394692","MEAN_ANOMALY":"289.5993","APOAPSIS":"548.992","REF_FRAME":"TEME","OBJECT_ID":"2020-019BH","EPOCH":"2021-12-12T22:43:22.791648","TIME_SYSTEM":"UTC","EPHEMERIS_TYPE":"0","INCLINATION":"53.0527","ARG_OF_PERICENTER":"70.5270","SITE":"AFETR","COUNTRY_CODE":"US","PERIAPSIS":"545.467","MEAN_MOTION_DOT":"-0.00000984","LAUNCH_DATE":"2020-03-18","ECCENTRICITY":"0.00025450"},{"MEAN_MOTION_DDOT":"0.0000000000000","OBJECT_NAME":"STARLINK-1318","OBJECT_TYPE":"PAYLOAD","GP_ID":"191585107","TLE_LINE1":"1 45416U 20019BJ  21346.91361777  .00000676  00000-0  64322-4 0  9999","ELEMENT_SET_NO":"999","SEMIMAJOR_AXIS":"6925.341","CLASSIFICATION_TYPE":"U","TLE_LINE2":"2 45416  53.0549 244.8655 0002605  69.0722 291.0546 15.06402377 96581","REV_AT_EPOCH":"9658","FILE":"3238376","RA_OF_ASC_NODE":"244.8655","PERIOD":"95.592","DECAY_DATE":null,"RCS_SIZE":"LARGE","MEAN_ELEMENT_THEORY":"SGP4","BSTAR":"0.00006432200000","CENTER_NAME":"EARTH","NORAD_CAT_ID":"45416","MEAN_ANOMALY":"291.0546","MEAN_MOTION":"15.06402377","EPOCH":"2021-12-12T21:55:36.575328","TIME_SYSTEM":"UTC","APOAPSIS":"549.010","OBJECT_ID":"2020-019BJ","REF_FRAME":"TEME","INCLINATION":"53.0549","EPHEMERIS_TYPE":"0","ARG_OF_PERICENTER":"69.0722","SITE":"AFETR","MEAN_MOTION_DOT":"0.00000676","PERIAPSIS":"545.402","COUNTRY_CODE":"US","ECCENTRICITY":"0.00026050","LAUNCH_DATE":"2020-03-18"},{"ECCENTRICITY":"0.00021600","LAUNCH_DATE":"2020-03-18","MEAN_MOTION_DOT":"-0.00000797","PERIAPSIS":"545.740","COUNTRY_CODE":"US","INCLINATION":"53.0553","EPHEMERIS_TYPE":"0","SITE":"AFETR","ARG_OF_PERICENTER":"66.2229","EPOCH":"2021-12-12T22:02:14.812800","TIME_SYSTEM":"UTC","APOAPSIS":"548.732","OBJECT_ID":"2020-019BK","REF_FRAME":"TEME","MEAN_ANOMALY":"293.8986","MEAN_MOTION":"15.06392650","REV_AT_EPOCH":"9643","FILE":"3238376","RA_OF_ASC_NODE":"274.8481","RCS_SIZE":"LARGE","DECAY_DATE":null,"PERIOD":"95.593","BSTAR":"-0.00003461300000","MEAN_ELEMENT_THEORY":"SGP4","CENTER_NAME":"EARTH","NORAD_CAT_ID":"45417","GP_ID":"191585363","ELEMENT_SET_NO":"999","TLE_LINE1":"1 45417U 20019BK  21346.91822700 -.00000797  00000-0 -34613-4 0  9994","SEMIMAJOR_AXIS":"6925.371","TLE_LINE2":"2 45417  53.0553 274.8481 0002160  66.2229 293.8986 15.06392650 96438","CLASSIFICATION_TYPE":"U","OBJECT_NAME":"STARLINK-1286","MEAN_MOTION_DDOT":"0.0000000000000","OBJECT_TYPE":"PAYLOAD"},{"COUNTRY_CODE":"US","PERIAPSIS":"560.687","MEAN_MOTION_DOT":"0.00001980","LAUNCH_DATE":"2020-03-18","ECCENTRICITY":"0.00016250","APOAPSIS":"562.943","REF_FRAME":"TEME","OBJECT_ID":"2020-019BL","EPOCH":"2021-12-12T21:35:34.535328","TIME_SYSTEM":"UTC","EPHEMERIS_TYPE":"0","INCLINATION":"53.0012","SITE":"AFETR","ARG_OF_PERICENTER":"69.3338","MEAN_ELEMENT_THEORY":"SGP4","BSTAR":"0.00017136000000","DECAY_DATE":null,"RCS_SIZE":"LARGE","PERIOD":"95.895","NORAD_CAT_ID":"45418","CENTER_NAME":"EARTH","REV_AT_EPOCH":"9588","RA_OF_ASC_NODE":"293.7059","FILE":"3238376","MEAN_MOTION":"15.01648438","MEAN_ANOMALY":"290.7822","MEAN_MOTION_DDOT":"0.0000000000000","OBJECT_NAME":"STARLINK-1299","OBJECT_TYPE":"PAYLOAD","SEMIMAJOR_AXIS":"6939.950","TLE_LINE1":"1 45418U 20019BL  21346.89970527  .00001980  00000-0  17136-3 0  9996","ELEMENT_SET_NO":"999","GP_ID":"191584109","CLASSIFICATION_TYPE":"U","TLE_LINE2":"2 45418  53.0012 293.7059 0001625  69.3338 290.7822 15.01648438 95886"},{"PERIAPSIS":"545.758","MEAN_MOTION_DOT":"0.00000894","COUNTRY_CODE":"US","ECCENTRICITY":"0.00021220","LAUNCH_DATE":"2020-03-18","EPOCH":"2021-12-12T20:21:23.885568","TIME_SYSTEM":"UTC","APOAPSIS":"548.697","REF_FRAME":"TEME","OBJECT_ID":"2020-019BM","EPHEMERIS_TYPE":"0","INCLINATION":"53.0539","ARG_OF_PERICENTER":"59.3885","SITE":"AFETR","REV_AT_EPOCH":"9617","RA_OF_ASC_NODE":"275.1466","FILE":"3238376","BSTAR":"0.00007892600000","MEAN_ELEMENT_THEORY":"SGP4","DECAY_DATE":null,"PERIOD":"95.592","RCS_SIZE":"LARGE","NORAD_CAT_ID":"45419","CENTER_NAME":"EARTH","MEAN_ANOMALY":"300.7313","MEAN_MOTION":"15.06395442","OBJECT_NAME":"STARLINK-1308","MEAN_MOTION_DDOT":"0.0000000000000","OBJECT_TYPE":"PAYLOAD","SEMIMAJOR_AXIS":"6925.363","TLE_LINE1":"1 45419U 20019BM  21346.84819312  .00000894  00000-0  78926-4 0  9994","ELEMENT_SET_NO":"999","GP_ID":"191584361","TLE_LINE2":"2 45419  53.0539 275.1466 0002122  59.3885 300.7313 15.06395442 96175","CLASSIFICATION_TYPE":"U"},{"LAUNCH_DATE":"2020-04-22","ECCENTRICITY":"0.00022300","COUNTRY_CODE":"US","MEAN_MOTION_DOT":"0.00000979","PERIAPSIS":"545.665","ARG_OF_PERICENTER":"70.6949","SITE":"AFETR","INCLINATION":"53.0531","EPHEMERIS_TYPE":"0","OBJECT_ID":"2020-025A","REF_FRAME":"TEME","APOAPSIS":"548.753","TIME_SYSTEM":"UTC","EPOCH":"2021-12-12T22:47:21.075072","MEAN_MOTION":"15.06401521","MEAN_ANOMALY":"289.4281","CENTER_NAME":"EARTH","NORAD_CAT_ID":"45531","PERIOD":"95.592","DECAY_DATE":null,"RCS_SIZE":"LARGE","BSTAR":"0.00008466100000","MEAN_ELEMENT_THEORY":"SGP4","FILE":"3238376","RA_OF_ASC_NODE":"214.6831","REV_AT_EPOCH":"9181","CLASSIFICATION_TYPE":"U","TLE_LINE2":"2 45531  53.0531 214.6831 0002230  70.6949 289.4281 15.06401521 91812","GP_ID":"191585119","TLE_LINE1":"1 45531U 20025A   21346.94954948  .00000979  00000-0  84661-4 0  9999","SEMIMAJOR_AXIS":"6925.344","ELEMENT_SET_NO":"999","OBJECT_TYPE":"PAYLOAD","MEAN_MOTION_DDOT":"0.0000000000000","OBJECT_NAME":"STARLINK-1329"}];
